[
  {
    "name": "STARLINK-35853",
    "noradId": "67177",
    "line1": "1 67177U 25303Q   26179.64577161  .00009248  00000+0  34521-3 0  9993",
    "line2": "2 67177  42.9985  44.1581 0000994 281.2780  78.7960 15.27577078 29704"
  },
  {
    "name": "STARLINK-35878",
    "noradId": "67178",
    "line1": "1 67178U 25303R   26179.63806512  .00014629  00000+0  53987-3 0  9994",
    "line2": "2 67178  42.9973  44.1034 0000762 298.6194  61.4581 15.27591173 29709"
  },
  {
    "name": "STARLINK-35793",
    "noradId": "67179",
    "line1": "1 67179U 25303S   26179.63549475  .00019474  00000+0  71493-3 0  9992",
    "line2": "2 67179  43.0011  44.0849 0001135 277.7472  82.3251 15.27598354 29704"
  },
  {
    "name": "STARLINK-35876",
    "noradId": "67180",
    "line1": "1 67180U 25303T   26179.63420961  .00022984  00000+0  84187-3 0  9996",
    "line2": "2 67180  42.9999  44.0734 0000934 276.1228  83.9517 15.27589921 29702"
  },
  {
    "name": "STARLINK-35766",
    "noradId": "67181",
    "line1": "1 67181U 25303U   26178.97006442  .00012645  00000+0  46796-3 0  9994",
    "line2": "2 67181  43.0022  47.6882 0001551 272.0143  88.0531 15.27600766 29604"
  },
  {
    "name": "STARLINK-35782",
    "noradId": "67182",
    "line1": "1 67182U 25303V   26179.67903574  .00018439  00000+0  67810-3 0  9992",
    "line2": "2 67182  43.0033  43.5489 0001165 271.1385  88.9333 15.27570625 29715"
  },
  {
    "name": "STARLINK-35719",
    "noradId": "67183",
    "line1": "1 67183U 25303W   26179.62007376  .00020893  00000+0  76616-3 0  9994",
    "line2": "2 67183  43.0045  43.9664 0004311 281.0573  78.9794 15.27594152 29703"
  },
  {
    "name": "STARLINK-35910",
    "noradId": "67184",
    "line1": "1 67184U 25303X   26179.34824777  .00017057  00000+0  62762-3 0  9991",
    "line2": "2 67184  43.0057  45.3665 0001559 278.5611  81.5064 15.27595970 29663"
  },
  {
    "name": "STARLINK-35859",
    "noradId": "67185",
    "line1": "1 67185U 25303Y   26179.35338925  .00029860  00000+0  10889-2 0  9995",
    "line2": "2 67185  43.0045  45.4024 0000910 307.1036  52.9733 15.27619239 29661"
  },
  {
    "name": "STARLINK-35857",
    "noradId": "67186",
    "line1": "1 67186U 25303Z   26179.63035268  .00018327  00000+0  67357-3 0  9990",
    "line2": "2 67186  43.0016  44.0423 0000967 273.6680  86.4061 15.27594705 29703"
  },
  {
    "name": "STARLINK-35880",
    "noradId": "67187",
    "line1": "1 67187U 25303AA  26179.68802997  .00024427  00000+0  89341-3 0  9992",
    "line2": "2 67187  43.0036  43.6143 0002736 283.1504  76.9043 15.27609209 29718"
  },
  {
    "name": "STARLINK-35675",
    "noradId": "67188",
    "line1": "1 67188U 25303AB  26179.34711129  .00015526  00000+0  57249-3 0  9994",
    "line2": "2 67188  43.0034  46.2185 0001547 265.5939  94.4736 15.27582671 29657"
  },
  {
    "name": "STARLINK-35889",
    "noradId": "67189",
    "line1": "1 67189U 25303AC  26179.66761710  .00010154  00000+0  37792-3 0  9994",
    "line2": "2 67189  43.0026  44.3233 0000563 301.0199  59.0597 15.27588008 29701"
  },
  {
    "name": "STARLINK-35888",
    "noradId": "67190",
    "line1": "1 67190U 25303AD  26179.65733811  .00011871  00000+0  44019-3 0  9993",
    "line2": "2 67190  43.0009  44.2481 0000895 277.4392  82.6358 15.27582324 29709"
  },
  {
    "name": "STARLINK-35716",
    "noradId": "67191",
    "line1": "1 67191U 25303AE  26179.93430176  .00022056  00000+0  80808-3 0  9996",
    "line2": "2 67191  43.0035  42.8865 0001636 258.5324 101.5344 15.27601712 29741"
  },
  {
    "name": "STARLINK-36182",
    "noradId": "67192",
    "line1": "1 67192U 25304A   26179.63859689  .00001787  00000+0  15751-3 0  9992",
    "line2": "2 67192  70.0003 254.7225 0003584 270.5369  89.5380 14.98333674 30471"
  },
  {
    "name": "STARLINK-36279",
    "noradId": "67193",
    "line1": "1 67193U 25304B   26179.63425683  .00001080  00000+0  98247-4 0  9994",
    "line2": "2 67193  70.0008 254.7023 0003776 266.9826  93.0901 14.98333286 30505"
  },
  {
    "name": "STARLINK-36284",
    "noradId": "67194",
    "line1": "1 67194U 25304C   26179.92216686  .00002446  00000+0  21264-3 0  9999",
    "line2": "2 67194  70.0009 254.1067 0003536 270.0675  90.0079 14.98336843 30540"
  },
  {
    "name": "STARLINK-36291",
    "noradId": "67195",
    "line1": "1 67195U 25304D   26179.93902983  .00003067  00000+0  26464-3 0  9990",
    "line2": "2 67195  70.0007 254.1605 0003622 269.6676  90.4067 14.98335967 30545"
  },
  {
    "name": "STARLINK-36239",
    "noradId": "67196",
    "line1": "1 67196U 25304E   26179.93469015  .00002615  00000+0  22682-3 0  9991",
    "line2": "2 67196  70.0007 254.1507 0003644 268.9986  91.0756 14.98334676 30545"
  },
  {
    "name": "STARLINK-36283",
    "noradId": "67197",
    "line1": "1 67197U 25304F   26179.95136012  .00002275  00000+0  19835-3 0  9990",
    "line2": "2 67197  70.0010 253.8015 0003640 267.3154  92.7588 14.98334144 30558"
  },
  {
    "name": "STARLINK-36267",
    "noradId": "67198",
    "line1": "1 67198U 25304G   26179.91381790  .00002182  00000+0  19059-3 0  9997",
    "line2": "2 67198  70.0010 254.0727 0003474 271.5616  88.5145 14.98336744 30513"
  },
  {
    "name": "STARLINK-36268",
    "noradId": "67199",
    "line1": "1 67199U 25304H   26179.92233152  .00002071  00000+0  18130-3 0  9993",
    "line2": "2 67199  70.0012 254.1003 0003423 268.2706  91.8061 14.98335349 30537"
  },
  {
    "name": "STARLINK-36270",
    "noradId": "67200",
    "line1": "1 67200U 25304J   26179.56348886  .00002516  00000+0  21855-3 0  9999",
    "line2": "2 67200  70.0010 254.8630 0003481 270.2221  89.8539 14.98335550 30496"
  },
  {
    "name": "STARLINK-36262",
    "noradId": "67201",
    "line1": "1 67201U 25304K   26179.93051552  .00002464  00000+0  21418-3 0  9999",
    "line2": "2 67201  70.0008 254.1329 0003650 268.4325  91.6416 14.98335699 30549"
  },
  {
    "name": "STARLINK-36263",
    "noradId": "67202",
    "line1": "1 67202U 25304L   26179.91799237  .00002282  00000+0  19897-3 0  9993",
    "line2": "2 67202  70.0009 254.0883 0003407 271.9575  88.1194 14.98336512 30540"
  },
  {
    "name": "STARLINK-36224",
    "noradId": "67203",
    "line1": "1 67203U 25304M   26179.64260507  .00002045  00000+0  17908-3 0  9995",
    "line2": "2 67203  70.0002 254.7243 0003566 269.6992  90.3758 14.98335354 30504"
  },
  {
    "name": "STARLINK-36185",
    "noradId": "67204",
    "line1": "1 67204U 25304N   26179.62590870  .00002612  00000+0  22662-3 0  9996",
    "line2": "2 67204  70.0007 254.6711 0003735 268.0162  92.0569 14.98334650 30506"
  },
  {
    "name": "STARLINK-36197",
    "noradId": "67205",
    "line1": "1 67205U 25304P   26179.94718446  .00001572  00000+0  13954-3 0  9991",
    "line2": "2 67205  70.0001 253.7870 0003701 266.9482  93.1253 14.98332621 30522"
  },
  {
    "name": "STARLINK-36056",
    "noradId": "67206",
    "line1": "1 67206U 25304Q   26179.93067925  .00002344  00000+0  20410-3 0  9993",
    "line2": "2 67206  70.0006 254.1286 0003611 269.3510  90.7236 14.98336281 30512"
  }
]