OBJECT_NAME,OBJECT_ID,EPOCH,MEAN_MOTION,ECCENTRICITY,INCLINATION,RA_OF_ASC_NODE,ARG_OF_PERICENTER,MEAN_ANOMALY,EPHEMERIS_TYPE,CLASSIFICATION_TYPE,NORAD_CAT_ID,ELEMENT_SET_NO,REV_AT_EPOCH,BSTAR,MEAN_MOTION_DOT,MEAN_MOTION_DDOT
STARLINK-35853,2025-303Q,2026-06-28T15:29:54.667104,15.27577078,.00009945,42.9985,44.1581,281.2780,78.7960,0,U,67177,999,2970,.34520864E-3,.9248E-4,0
STARLINK-35878,2025-303R,2026-06-28T15:18:48.826368,15.27591173,.00007623,42.9973,44.1034,298.6194,61.4581,0,U,67178,999,2970,.53987306E-3,.14629E-3,0
STARLINK-35793,2025-303S,2026-06-28T15:15:06.746400,15.27598354,.00011354,43.0011,44.0849,277.7472,82.3251,0,U,67179,999,2970,.71493151E-3,.19474E-3,0
STARLINK-35876,2025-303T,2026-06-28T15:13:15.710304,15.27589921,.00009345,42.9999,44.0734,276.1228,83.9517,0,U,67180,999,2970,.8418735E-3,.22984E-3,0
STARLINK-35766,2025-303U,2026-06-27T23:16:53.565888,15.27600766,.00015512,43.0022,47.6882,272.0143,88.0531,0,U,67181,999,2960,.46796356E-3,.12645E-3,0
STARLINK-35782,2025-303V,2026-06-28T16:17:48.687936,15.27570625,.00011652,43.0033,43.5489,271.1385,88.9333,0,U,67182,999,2971,.67809606E-3,.18439E-3,0
STARLINK-35719,2025-303W,2026-06-28T14:52:54.372864,15.27594152,.00043112,43.0045,43.9664,281.0573,78.9794,0,U,67183,999,2970,.76615883E-3,.20893E-3,0
STARLINK-35910,2025-303X,2026-06-28T08:21:28.607328,15.27595970,.00015592,43.0057,45.3665,278.5611,81.5064,0,U,67184,999,2966,.62762252E-3,.17057E-3,0
STARLINK-35859,2025-303Y,2026-06-28T08:28:52.831200,15.27619239,.00009105,43.0045,45.4024,307.1036,52.9733,0,U,67185,999,2966,.10889292E-2,.2986E-3,0
STARLINK-35857,2025-303Z,2026-06-28T15:07:42.471552,15.27594705,.00009677,43.0016,44.0423,273.6680,86.4061,0,U,67186,999,2970,.67357239E-3,.18327E-3,0
STARLINK-35880,2025-303AA,2026-06-28T16:30:45.789408,15.27609209,.00027367,43.0036,43.6143,283.1504,76.9043,0,U,67187,999,2971,.89340835E-3,.24427E-3,0
STARLINK-35675,2025-303AB,2026-06-28T08:19:50.415456,15.27582671,.00015472,43.0034,46.2185,265.5939,94.4736,0,U,67188,999,2965,.57248805E-3,.15526E-3,0
STARLINK-35889,2025-303AC,2026-06-28T16:01:22.117440,15.27588008,.0000563,43.0026,44.3233,301.0199,59.0597,0,U,67189,999,2970,.3779224E-3,.10154E-3,0
STARLINK-35888,2025-303AD,2026-06-28T15:46:34.012704,15.27582324,.00008957,43.0009,44.2481,277.4392,82.6358,0,U,67190,999,2970,.44019173E-3,.11871E-3,0
STARLINK-35716,2025-303AE,2026-06-28T22:25:23.672064,15.27601712,.00016366,43.0035,42.8865,258.5324,101.5344,0,U,67191,999,2974,.80808424E-3,.22056E-3,0
STARLINK-36182,2025-304A,2026-06-28T15:19:34.771296,14.98333674,.00035849,70.0003,254.7225,270.5369,89.5380,0,U,67192,999,3047,.15751098E-3,.1787E-4,0
STARLINK-36279,2025-304B,2026-06-28T15:13:19.790112,14.98333286,.00037765,70.0008,254.7023,266.9826,93.0901,0,U,67193,999,3050,.98246728E-4,.108E-4,0
STARLINK-36284,2025-304C,2026-06-28T22:07:55.216704,14.98336843,.00035365,70.0009,254.1067,270.0675,90.0079,0,U,67194,999,3054,.21264417E-3,.2446E-4,0
STARLINK-36291,2025-304D,2026-06-28T22:32:12.177312,14.98335967,.00036228,70.0007,254.1605,269.6676,90.4067,0,U,67195,999,3054,.26463587E-3,.3067E-4,0
STARLINK-36239,2025-304E,2026-06-28T22:25:57.228960,14.98334676,.00036444,70.0007,254.1507,268.9986,91.0756,0,U,67196,999,3054,.22682258E-3,.2615E-4,0
STARLINK-36283,2025-304F,2026-06-28T22:49:57.514368,14.98334144,.000364,70.0010,253.8015,267.3154,92.7588,0,U,67197,999,3055,.1983546E-3,.2275E-4,0
STARLINK-36267,2025-304G,2026-06-28T21:55:53.866560,14.98336744,.00034741,70.0010,254.0727,271.5616,88.5145,0,U,67198,999,3051,.19059178E-3,.2182E-4,0
STARLINK-36268,2025-304H,2026-06-28T22:08:09.443328,14.98335349,.00034236,70.0012,254.1003,268.2706,91.8061,0,U,67199,999,3053,.18129766E-3,.2071E-4,0
STARLINK-36270,2025-304J,2026-06-28T13:31:25.437504,14.98335550,.00034818,70.0010,254.8630,270.2221,89.8539,0,U,67200,999,3049,.21855444E-3,.2516E-4,0
STARLINK-36262,2025-304K,2026-06-28T22:19:56.540928,14.98335699,.00036503,70.0008,254.1329,268.4325,91.6416,0,U,67201,999,3054,.21417952E-3,.2464E-4,0
STARLINK-36263,2025-304L,2026-06-28T22:01:54.540768,14.98336512,.00034076,70.0009,254.0883,271.9575,88.1194,0,U,67202,999,3054,.19897186E-3,.2282E-4,0
STARLINK-36224,2025-304M,2026-06-28T15:25:21.078048,14.98335354,.00035669,70.0002,254.7243,269.6992,90.3758,0,U,67203,999,3050,.17907682E-3,.2045E-4,0
STARLINK-36185,2025-304N,2026-06-28T15:01:18.511680,14.98334650,.00037358,70.0007,254.6711,268.0162,92.0569,0,U,67204,999,3050,.22661892E-3,.2612E-4,0
STARLINK-36197,2025-304P,2026-06-28T22:43:56.737344,14.98332621,.00037016,70.0001,253.7870,266.9482,93.1253,0,U,67205,999,3052,.13954427E-3,.1572E-4,0
STARLINK-36056,2025-304Q,2026-06-28T22:20:10.687200,14.98336281,.00036117,70.0006,254.1286,269.3510,90.7236,0,U,67206,999,3051,.20409959E-3,.2344E-4,0
